[{"OBJECT_NAME":"STARLINK-4046","OBJECT_ID":"2022-062N","EPOCH":"2026-03-09T05:06:27.851904","MEAN_MOTION":15.08835663,"ECCENTRICITY":0.00015675,"INCLINATION":53.219,"RA_OF_ASC_NODE":36.1857,"ARG_OF_PERICENTER":92.5648,"MEAN_ANOMALY":267.5524,"EPHEMERIS_TYPE":0,"CLASSIFICATION_TYPE":"U","NORAD_CAT_ID":52842,"ELEMENT_SET_NO":999,"REV_AT_EPOCH":20571,"BSTAR":1.317944e-5,"MEAN_MOTION_DOT":-7.8e-7,"MEAN_MOTION_DDOT":0},{"OBJECT_NAME":"CZ-4B DEB","OBJECT_ID":"2004-035K","EPOCH":"2026-03-08T06:51:30.377664","MEAN_MOTION":15.09293825,"ECCENTRICITY":0.00031468,"INCLINATION":97.5843,"RA_OF_ASC_NODE":91.2716,"ARG_OF_PERICENTER":107.6302,"MEAN_ANOMALY":252.527,"EPHEMERIS_TYPE":0,"CLASSIFICATION_TYPE":"U","NORAD_CAT_ID":29043,"ELEMENT_SET_NO":999,"REV_AT_EPOCH":10418,"BSTAR":0.00031897975,"MEAN_MOTION_DOT":5.021e-5,"MEAN_MOTION_DDOT":0}]
